[{"OBJECT_NAME":"SKYSAT-C6","OBJECT_ID":"2017-068F","EPOCH":"2026-03-09T21:33:49.392576","MEAN_MOTION":15.32504544,"ECCENTRICITY":0.00036369,"INCLINATION":97.44,"RA_OF_ASC_NODE":205.7173,"ARG_OF_PERICENTER":127.5085,"MEAN_ANOMALY":232.6488,"EPHEMERIS_TYPE":0,"CLASSIFICATION_TYPE":"U","NORAD_CAT_ID":42992,"ELEMENT_SET_NO":999,"REV_AT_EPOCH":46710,"BSTAR":0.00039699196,"MEAN_MOTION_DOT":0.0001239,"MEAN_MOTION_DDOT":0},{"OBJECT_NAME":"STARLINK-34359","OBJECT_ID":"2025-120AA","EPOCH":"2026-03-09T19:41:30.723072","MEAN_MOTION":15.30200014,"ECCENTRICITY":0.00014571,"INCLINATION":53.1573,"RA_OF_ASC_NODE":116.2561,"ARG_OF_PERICENTER":65.7146,"MEAN_ANOMALY":294.4007,"EPHEMERIS_TYPE":0,"CLASSIFICATION_TYPE":"U","NORAD_CAT_ID":64280,"ELEMENT_SET_NO":999,"REV_AT_EPOCH":4393,"BSTAR":0.00075013965,"MEAN_MOTION_DOT":0.00021923,"MEAN_MOTION_DDOT":0}]
